[{"OBJECT_NAME":"CSC-2","OBJECT_ID":"2023-155F","EPOCH":"2026-03-09T18:52:09.760512","MEAN_MOTION":15.19850023,"ECCENTRICITY":0.00046278,"INCLINATION":97.5491,"RA_OF_ASC_NODE":145.3107,"ARG_OF_PERICENTER":207.4869,"MEAN_ANOMALY":152.6121,"EPHEMERIS_TYPE":0,"CLASSIFICATION_TYPE":"U","NORAD_CAT_ID":58021,"ELEMENT_SET_NO":999,"REV_AT_EPOCH":13307,"BSTAR":0.00057636631,"MEAN_MOTION_DOT":0.00012305,"MEAN_MOTION_DDOT":0},{"OBJECT_NAME":"STARLINK-34020","OBJECT_ID":"2025-098P","EPOCH":"2026-03-09T22:43:50.461248","MEAN_MOTION":15.00378099,"ECCENTRICITY":0.00060082,"INCLINATION":69.9999,"RA_OF_ASC_NODE":273.6983,"ARG_OF_PERICENTER":279.1052,"MEAN_ANOMALY":80.9428,"EPHEMERIS_TYPE":0,"CLASSIFICATION_TYPE":"U","NORAD_CAT_ID":63939,"ELEMENT_SET_NO":999,"REV_AT_EPOCH":4659,"BSTAR":0.10050739,"MEAN_MOTION_DOT":0.01381015,"MEAN_MOTION_DDOT":0}]
